KUIPER-00106            
1 65144U 25171N   26060.36618883  .00008504  00000+0  75033-3 0  9990
2 65144  51.8922 192.7905 0007847  74.1660 286.0174 14.97096243 31694
KUIPER-00107            
1 65145U 25171P   26060.51719065  .00006481  00000+0  87817-3 0  9997
2 65145  51.9004 184.2319 0000218  72.4780 287.6206 14.79939580 31829
KUIPER-00108            
1 65146U 25171Q   26060.40231433  .00005555  00000+0  75675-3 0  9994
2 65146  51.9001 197.2520 0001725 151.1326 208.9732 14.79951546 31635
KUIPER-00109            
1 65147U 25171R   26060.37391398 -.00000331  00000+0 -14400-4 0  9997
2 65147  51.8974 192.3196 0000412  50.1263 309.9735 14.79931175 31696
KUIPER-00110            
1 65148U 25171S   26060.39520801  .00005460  00000+0  74564-3 0  9995
2 65148  51.8979 204.8250 0002113 160.4996 199.6047 14.79878052 31515
KUIPER-00111            
1 65149U 25171T   26060.42250754  .00005022  00000+0  68666-3 0  9997
2 65149  51.8957 209.6060 0002012 129.7365 230.3774 14.79970757 31458
KUIPER-00112            
1 65150U 25171U   26060.40780294  .00004994  00000+0  68338-3 0  9997
2 65150  51.9002 192.2260 0000405 104.4045 255.6963 14.79944934 31694
KUIPER-00114            
1 65151U 25171V   26060.41987595  .00004309  00000+0  59371-3 0  9999
2 65151  51.8989 212.1726 0001680 126.7758 233.3358 14.79948385 31416
KUIPER-00115            
1 65152U 25171W   26060.42783085  .00004602  00000+0  63195-3 0  9994
2 65152  51.8975 204.6225 0000585  99.7880 260.3148 14.79957351 31522
KUIPER-00116            
1 65153U 25171X   26060.45630816  .00005565  00000+0  75805-3 0  9991
2 65153  51.8984 209.5358 0001789 123.1217 236.9918 14.79955816 31457
KUIPER-00118            
1 65154U 25171Y   26060.45355923  .00004755  00000+0  65177-3 0  9996
2 65154  51.8984 212.0044 0000670  88.0066 272.0973 14.79966980 31421
KUIPER-00119            
1 65155U 25171Z   26060.39957885  .00000369  00000+0  77479-4 0  9991
2 65155  51.8970 199.8271 0002059 121.8307 238.2856 14.79885377 31589
KUIPER-00120            
1 65762U 25217A   26059.35364907 -.00092107  00000+0 -11954-1 0  9993
2 65762  51.8984  94.3611 0001285  57.0318 303.0768 14.80848714 23352
KUIPER-00132            
1 65763U 25217B   26060.37451690  .00042655  00000+0  10768-2 0  9998
2 65763  51.8598  43.8562 0006745 304.9875  55.0479 15.39390296 24149
KUIPER-00133            
1 65764U 25217C   26060.33244203 -.00001089  00000+0 -11377-3 0  9991
2 65764  51.9025  90.0734 0002031   4.9079 355.1903 14.79934078 23508
KUIPER-00139            
1 65765U 25217D   26060.32428580  .00004286  00000+0  34604-3 0  9991
2 65765  51.8854  72.0927 0007160 291.0633  68.9572 15.01726641 23754
KUIPER-00142            
1 65766U 25217E   26060.45269168  .00002414  00000+0  34564-3 0  9997
2 65766  51.8989  72.0154 0000762  95.6692 264.4358 14.79929662 23768
KUIPER-00145            
1 65767U 25217F   26060.24729889 -.00002089  00000+0 -24506-3 0  9991
2 65767  51.8991  75.4374 0000611  96.6751 263.4280 14.79944470 23692
KUIPER-00147            
1 65768U 25217G   26060.41355624  .00004702  00000+0  64507-3 0  9990
2 65768  51.8984  77.1988 0000874  89.3198 270.7865 14.79953354 23680
KUIPER-00148            
1 65769U 25217H   26060.39720891  .00013385  00000+0  83428-3 0  9990
2 65769  51.8777  63.0809 0008550 326.5835  33.4600 15.09798457 23888
KUIPER-00150            
1 65770U 25217J   26060.26762831  .00004425  00000+0  60853-3 0  9990
2 65770  51.9007  87.8478 0000559  53.0548 307.0466 14.79965985 23526
KUIPER-00151            
1 65771U 25217K   26060.47836157  .00004955  00000+0  67842-3 0  9990
2 65771  51.9006  79.4130 0000950  51.7937 308.3111 14.79933885 23660
KUIPER-00152            
1 65772U 25217L   26060.45811586  .00008509  00000+0  11432-2 0  9990
2 65772  51.9002  66.9951 0000937 129.7374 230.3671 14.79951928 23837
KUIPER-00153            
1 65773U 25217M   26060.40896953  .00014582  00000+0  82857-3 0  9995
2 65773  51.8766  66.1099 0010362 298.6959  61.2975 15.13072884 23840
KUIPER-00155            
1 65774U 25217N   26060.39707916 -.00000544  00000+0 -87247-5 0  9999
2 65774  51.8778  50.7430 0005399 311.6604  48.3914 15.23028375 24059
KUIPER-00156            
1 65775U 25217P   26060.36216490  .00004974  00000+0  68102-3 0  9995
2 65775  51.9028  62.4478 0000860 103.1227 256.9831 14.79932068 23882
KUIPER-00158            
1 65776U 25217Q   26060.36673483  .00005278  00000+0  71235-3 0  9994
2 65776  51.8965  82.3015 0000942  32.5481 327.5540 14.80432708 23619
KUIPER-00163            
1 65777U 25217R   26057.49976451  .00003385  00000+0  45151-3 0  9991
2 65777  51.8975  97.1967 0000866 350.1713   9.9233 14.81900605 23159
KUIPER-00165            
1 65778U 25217S   26060.28388406  .00004509  00000+0  62167-3 0  9995
2 65778  51.8995  72.7681 0001111  83.0209 277.0880 14.79827854 23731
KUIPER-00166            
1 65779U 25217T   26060.39863832 -.00005563  00000+0 -70212-3 0  9992
2 65779  51.9053  59.7849 0000314  59.5112 300.5881 14.79883812 23924
KUIPER-00167            
1 65780U 25217U   26060.27305623  .00004105  00000+0  56817-3 0  9994
2 65780  51.8956  82.7846 0000210  42.3816 317.7163 14.79857995 23595
