OBJECT_NAME,OBJECT_ID,EPOCH,MEAN_MOTION,ECCENTRICITY,INCLINATION,RA_OF_ASC_NODE,ARG_OF_PERICENTER,MEAN_ANOMALY,EPHEMERIS_TYPE,CLASSIFICATION_TYPE,NORAD_CAT_ID,ELEMENT_SET_NO,REV_AT_EPOCH,BSTAR,MEAN_MOTION_DOT,MEAN_MOTION_DDOT
KUIPER-00106,2025-171N,2026-03-01T08:47:18.714912,14.97096243,.0007847,51.8922,192.7905,74.1660,286.0174,0,U,65144,999,3169,.75033E-3,.8504E-4,0
KUIPER-00107,2025-171P,2026-03-01T12:24:45.272160,14.79939580,.0000218,51.9004,184.2319,72.4780,287.6206,0,U,65145,999,3182,.87817E-3,.6481E-4,0
KUIPER-00108,2025-171Q,2026-03-01T09:39:19.958112,14.79951546,.0001725,51.9001,197.2520,151.1326,208.9732,0,U,65146,999,3163,.75675E-3,.5555E-4,0
KUIPER-00109,2025-171R,2026-03-01T08:58:26.167872,14.79931175,.0000412,51.8974,192.3196,50.1263,309.9735,0,U,65147,999,3169,-.144E-4,-.331E-5,0
KUIPER-00110,2025-171S,2026-03-01T09:29:05.972064,14.79878052,.0002113,51.8979,204.8250,160.4996,199.6047,0,U,65148,999,3151,.74564E-3,.546E-4,0
KUIPER-00111,2025-171T,2026-03-01T10:08:24.651456,14.79970757,.0002012,51.8957,209.6060,129.7365,230.3774,0,U,65149,999,3145,.68666E-3,.5022E-4,0
KUIPER-00112,2025-171U,2026-03-01T09:47:14.174016,14.79944934,.0000405,51.9002,192.2260,104.4045,255.6963,0,U,65150,999,3169,.68338E-3,.4994E-4,0
KUIPER-00114,2025-171V,2026-03-01T10:04:37.282080,14.79948385,.000168,51.8989,212.1726,126.7758,233.3358,0,U,65151,999,3141,.59371E-3,.4309E-4,0
KUIPER-00115,2025-171W,2026-03-01T10:16:04.585440,14.79957351,.0000585,51.8975,204.6225,99.7880,260.3148,0,U,65152,999,3152,.63195E-3,.4602E-4,0
KUIPER-00116,2025-171X,2026-03-01T10:57:05.025024,14.79955816,.0001789,51.8984,209.5358,123.1217,236.9918,0,U,65153,999,3145,.75805E-3,.5565E-4,0
KUIPER-00118,2025-171Y,2026-03-01T10:53:07.517472,14.79966980,.000067,51.8984,212.0044,88.0066,272.0973,0,U,65154,999,3142,.65177E-3,.4755E-4,0
KUIPER-00119,2025-171Z,2026-03-01T09:35:23.612640,14.79885377,.0002059,51.8970,199.8271,121.8307,238.2856,0,U,65155,999,3158,.77479E-4,.369E-5,0
KUIPER-00120,2025-217A,2026-02-28T08:29:15.279648,14.80848714,.0001285,51.8984,94.3611,57.0318,303.0768,0,U,65762,999,2335,-.11954457E-1,-.92107E-3,0
KUIPER-00132,2025-217B,2026-03-01T08:59:18.260160,15.39390296,.0006745,51.8598,43.8562,304.9875,55.0479,0,U,65763,999,2414,.10768E-2,.42655E-3,0
KUIPER-00133,2025-217C,2026-03-01T07:58:42.991392,14.79934078,.0002031,51.9025,90.0734,4.9079,355.1903,0,U,65764,999,2350,-.11377E-3,-.1089E-4,0
KUIPER-00139,2025-217D,2026-03-01T07:46:58.293120,15.01726641,.000716,51.8854,72.0927,291.0633,68.9572,0,U,65765,999,2375,.34604E-3,.4286E-4,0
KUIPER-00142,2025-217E,2026-03-01T10:51:52.561152,14.79929662,.0000762,51.8989,72.0154,95.6692,264.4358,0,U,65766,999,2376,.34564E-3,.2414E-4,0
KUIPER-00145,2025-217F,2026-03-01T05:56:06.624096,14.79944470,.0000611,51.8991,75.4374,96.6751,263.4280,0,U,65767,999,2369,-.24506E-3,-.2089E-4,0
KUIPER-00147,2025-217G,2026-03-01T09:55:31.259136,14.79953354,.0000874,51.8984,77.1988,89.3198,270.7865,0,U,65768,999,2368,.64507E-3,.4702E-4,0
KUIPER-00148,2025-217H,2026-03-01T09:31:58.849824,15.09798457,.000855,51.8777,63.0809,326.5835,33.4600,0,U,65769,999,2388,.83428E-3,.13385E-3,0
KUIPER-00150,2025-217J,2026-03-01T06:25:23.085984,14.79965985,.0000559,51.9007,87.8478,53.0548,307.0466,0,U,65770,999,2352,.60853E-3,.4425E-4,0
KUIPER-00151,2025-217K,2026-03-01T11:28:50.439648,14.79933885,.000095,51.9006,79.4130,51.7937,308.3111,0,U,65771,999,2366,.67842E-3,.4955E-4,0
KUIPER-00152,2025-217L,2026-03-01T10:59:41.210304,14.79951928,.0000937,51.9002,66.9951,129.7374,230.3671,0,U,65772,999,2383,.11432E-2,.8509E-4,0
KUIPER-00153,2025-217M,2026-03-01T09:48:54.967392,15.13072884,.0010362,51.8766,66.1099,298.6959,61.2975,0,U,65773,999,2384,.82857E-3,.14582E-3,0
KUIPER-00155,2025-217N,2026-03-01T09:31:47.639424,15.23028375,.0005399,51.8778,50.7430,311.6604,48.3914,0,U,65774,999,2405,-.87247E-5,-.544E-5,0
KUIPER-00156,2025-217P,2026-03-01T08:41:31.047360,14.79932068,.000086,51.9028,62.4478,103.1227,256.9831,0,U,65775,999,2388,.68102E-3,.4974E-4,0
KUIPER-00158,2025-217Q,2026-03-01T08:48:05.889312,14.80432708,.0000942,51.8965,82.3015,32.5481,327.5540,0,U,65776,999,2361,.71235E-3,.5278E-4,0
KUIPER-00163,2025-217R,2026-02-26T11:59:39.653664,14.81900605,.0000866,51.8975,97.1967,350.1713,9.9233,0,U,65777,999,2315,.45151E-3,.3385E-4,0
KUIPER-00165,2025-217S,2026-03-01T06:48:47.582784,14.79827854,.0001111,51.8995,72.7681,83.0209,277.0880,0,U,65778,999,2373,.62167E-3,.4509E-4,0
KUIPER-00166,2025-217T,2026-03-01T09:34:02.350848,14.79883812,.0000314,51.9053,59.7849,59.5112,300.5881,0,U,65779,999,2392,-.70212E-3,-.5563E-4,0
KUIPER-00167,2025-217U,2026-03-01T06:33:12.058272,14.79857995,.000021,51.8956,82.7846,42.3816,317.7163,0,U,65780,999,2359,.56817E-3,.4105E-4,0
